[{"OBJECT_NAME":"STARLINK-5058","OBJECT_ID":"2023-015H","EPOCH":"2026-03-09T02:32:22.301088","MEAN_MOTION":15.02731068,"ECCENTRICITY":6.189e-5,"INCLINATION":43.0045,"RA_OF_ASC_NODE":329.3796,"ARG_OF_PERICENTER":311.3387,"MEAN_ANOMALY":48.7402,"EPHEMERIS_TYPE":0,"CLASSIFICATION_TYPE":"U","NORAD_CAT_ID":55456,"ELEMENT_SET_NO":999,"REV_AT_EPOCH":17066,"BSTAR":0.0019281234,"MEAN_MOTION_DOT":0.00026074,"MEAN_MOTION_DDOT":0},{"OBJECT_NAME":"SCOUT X-4 DEB","OBJECT_ID":"1963-053J","EPOCH":"2026-03-09T16:55:00.113088","MEAN_MOTION":14.81958963,"ECCENTRICITY":0.01635672,"INCLINATION":78.5671,"RA_OF_ASC_NODE":172.6466,"ARG_OF_PERICENTER":287.7652,"MEAN_ANOMALY":70.5757,"EPHEMERIS_TYPE":0,"CLASSIFICATION_TYPE":"U","NORAD_CAT_ID":3750,"ELEMENT_SET_NO":999,"REV_AT_EPOCH":79379,"BSTAR":0.0036900022,"MEAN_MOTION_DOT":0.00037093,"MEAN_MOTION_DDOT":0}]
